IRIDIUM 26              
1 24903U 97043A   25354.35696514  .00000318  00000+0  99969-4 0  9996
2 24903  86.3951  32.3609 0002225  98.6659 261.4791 14.37333261483489
IRIDIUM 22              
1 24907U 97043E   25354.09331758  .00000263  00000+0  83522-4 0  9994
2 24907  86.3956  36.1714 0002333  94.6239 265.5225 14.36126303483457
DUMMY MASS 1            
1 24925U 97048A   25354.40898466  .00000316  00000+0  31940-4 0  9994
2 24925  86.3338  49.1574 0005990 184.8749 175.2419 14.87188863532800
DUMMY MASS 2            
1 24926U 97048B   25354.13305552  .00000309  00000+0  31372-4 0  9995
2 24926  86.3339  50.9274 0006195 201.3943 158.7023 14.86939202532535
IRIDIUM 29              
1 24944U 97051A   25354.25761758  .00000293  00000+0  92696-4 0  9994
2 24944  86.3949  65.7871 0002257  91.2298 268.9158 14.36668330479981
IRIDIUM 33              
1 24946U 97051C   25354.23719293  .00000273  00000+0  88822-4 0  9995
2 24946  86.3865  65.0747 0007926 175.1240 185.0035 14.35042342479422
IRIDIUM 28              
1 24948U 97051E   25354.18352618  .00000301  00000+0  93766-4 0  9990
2 24948  86.3954  63.2274 0002185 109.5464 250.5969 14.37568265480569
IRIDIUM 36              
1 24967U 97056C   25354.25707015  .00000317  00000+0  98704-4 0  9993
2 24967  86.3962  94.8240 0002279 100.9078 259.2376 14.37790241478951
